ORBCOMM FM115           
1 41186U 15081H   25160.87682110  .00000492  00000+0  13050-3 0  9998
2 41186  46.9991  74.3239 0000976 342.4441  17.6412 14.62491373506701
ORBCOMM FM108           
1 41187U 15081J   25159.67391140  .00000720  00000+0  19119-3 0  9991
2 41187  47.0034 147.1752 0003670 279.1126  80.9344 14.58157354505553
ORBCOMM FM117           
1 41188U 15081K   25160.94201621  .00000189  00000+0  77340-4 0  9998
2 41188  46.9997 139.9506 0004128 289.9410  70.1030 14.58140692505785
ORBCOMM FM116           
1 41189U 15081L   25160.58814361  .00000485  00000+0  14081-3 0  9991
2 41189  47.0014 231.4707 0001534 147.6476 212.4504 14.58168352504542
